[{"OBJECT_NAME":"STARLINK-3882","OBJECT_ID":"2022-049AA","EPOCH":"2026-03-09T06:20:01.939776","MEAN_MOTION":15.08829678,"ECCENTRICITY":0.00014324,"INCLINATION":53.2177,"RA_OF_ASC_NODE":61.2538,"ARG_OF_PERICENTER":73.4539,"MEAN_ANOMALY":286.661,"EPHEMERIS_TYPE":0,"CLASSIFICATION_TYPE":"U","NORAD_CAT_ID":52475,"ELEMENT_SET_NO":999,"REV_AT_EPOCH":21218,"BSTAR":0.00011991518,"MEAN_MOTION_DOT":1.621e-5,"MEAN_MOTION_DDOT":0},{"OBJECT_NAME":"RAAF M1","OBJECT_ID":"2018-099X","EPOCH":"2026-03-09T15:51:10.230048","MEAN_MOTION":15.07065376,"ECCENTRICITY":0.00134971,"INCLINATION":97.4534,"RA_OF_ASC_NODE":114.8325,"ARG_OF_PERICENTER":21.6261,"MEAN_ANOMALY":338.5534,"EPHEMERIS_TYPE":0,"CLASSIFICATION_TYPE":"U","NORAD_CAT_ID":43779,"ELEMENT_SET_NO":999,"REV_AT_EPOCH":39714,"BSTAR":0.00026511092,"MEAN_MOTION_DOT":3.923e-5,"MEAN_MOTION_DDOT":0}]
